ORBCOMM FM103           
1 40091U 14040F   24170.59382119  .00000843  00000+0  22426-3 0  9998
2 40091  47.0067 293.0841 0001118  26.9297 333.1646 14.56698242511069
ORBCOMM FM114           
1 41179U 15081A   24170.48870170  .00000732  00000+0  19932-3 0  9994
2 41179  47.0013 202.8340 0000438 149.1583 210.9328 14.56761929451414
ORBCOMM FM119           
1 41180U 15081B   24170.52933419  .00000841  00000+0  22374-3 0  9992
2 41180  47.0007 111.8440 0001268 211.3835 148.6975 14.56676485452679
ORBCOMM FM105           
1 41181U 15081C   24170.48923651  .00000422  00000+0  16642-3 0  9991
2 41181  47.0021  82.5230 0001258 141.7704 218.3265 14.44439857448159
ORBCOMM FM110           
1 41182U 15081D   24170.46611799  .00000658  00000+0  18308-3 0  9999
2 41182  47.0003 202.3475 0002998 291.0854  68.9710 14.56756104451282
ORBCOMM FM118           
1 41183U 15081E   24170.44380246  .00000557  00000+0  16073-3 0  9993
2 41183  47.0026 202.7704 0003053 288.9413  71.1141 14.56744219451385
ORBCOMM FM112           
1 41184U 15081F   24170.57435021  .00000958  00000+0  25004-3 0  9999
2 41184  46.9989 110.8337 0001044 178.2621 181.8268 14.56643504452625
ORBCOMM FM113           
1 41185U 15081G   24170.55161239  .00001020  00000+0  26368-3 0  9990
2 41185  47.0008 111.2145 0000985 206.3783 153.7052 14.56644304452670
